{
    "links": {
        "self": "http://www.neowsapp.com/rest/v1/neo/54016443?api_key=iIulBulltgU6a56xZRHN4H3l9WmuAYTsLGpBGhQ2"
    },
    "id": "54016443",
    "neo_reference_id": "54016443",
    "name": "(2020 GL)",
    "designation": "2020 GL",
    "nasa_jpl_url": "http://ssd.jpl.nasa.gov/sbdb.cgi?sstr=54016443",
    "absolute_magnitude_h": 23.109,
    "estimated_diameter": {
        "kilometers": {
            "estimated_diameter_min": 0.0634972587,
            "estimated_diameter_max": 0.1419841869
        },
        "meters": {
            "estimated_diameter_min": 63.497258736,
            "estimated_diameter_max": 141.9841869187
        },
        "miles": {
            "estimated_diameter_min": 0.0394553552,
            "estimated_diameter_max": 0.0882248562
        },
        "feet": {
            "estimated_diameter_min": 208.3243463515,
            "estimated_diameter_max": 465.8273998102
        }
    },
    "is_potentially_hazardous_asteroid": false,
    "close_approach_data": [
        {
            "close_approach_date": "2020-04-14",
            "close_approach_date_full": "2020-Apr-14 21:56",
            "epoch_date_close_approach": 1586901360000,
            "relative_velocity": {
                "kilometers_per_second": "16.0708495936",
                "kilometers_per_hour": "57855.0585369913",
                "miles_per_hour": "35948.8834559433"
            },
            "miss_distance": {
                "astronomical": "0.0945314875",
                "lunar": "36.7727486375",
                "kilometers": "14141709.177931625",
                "miles": "8787250.612941425"
            },
            "orbiting_body": "Earth"
        },
        {
            "close_approach_date": "2160-08-31",
            "close_approach_date_full": "2160-Aug-31 01:30",
            "epoch_date_close_approach": 6016815000000,
            "relative_velocity": {
                "kilometers_per_second": "14.2384989905",
                "kilometers_per_hour": "51258.5963657363",
                "miles_per_hour": "31850.0983918099"
            },
            "miss_distance": {
                "astronomical": "0.2636868522",
                "lunar": "102.5741855058",
                "kilometers": "39446991.436124814",
                "miles": "24511223.8778538732"
            },
            "orbiting_body": "Earth"
        }
    ],
    "orbital_data": {
        "orbit_id": "5",
        "orbit_determination_date": "2020-04-13 06:09:56",
        "first_observation_date": "2020-04-02",
        "last_observation_date": "2020-04-13",
        "data_arc_in_days": 11,
        "observations_used": 72,
        "orbit_uncertainty": "8",
        "minimum_orbit_intersection": ".0862875",
        "jupiter_tisserand_invariant": "3.795",
        "epoch_osculation": "2458944.5",
        "eccentricity": ".5233599897283774",
        "semi_major_axis": "1.823334572125985",
        "inclination": "21.05763228488675",
        "ascending_node_longitude": "13.73260229492337",
        "orbital_period": "899.286299165378",
        "perihelion_distance": ".8690742091867343",
        "perihelion_argument": "251.6048016365199",
        "aphelion_distance": "2.777594935065236",
        "perihelion_time": "2459001.746715948197",
        "mean_anomaly": "337.0831405299093",
        "mean_motion": ".4003174521107614",
        "equinox": "J2000",
        "orbit_class": {
            "orbit_class_type": "APO",
            "orbit_class_description": "Near-Earth asteroid orbits which cross the Earth’s orbit similar to that of 1862 Apollo",
            "orbit_class_range": "a (semi-major axis) > 1.0 AU; q (perihelion) < 1.017 AU"
        }
    },
    "is_sentry_object": false
}